{"type":"FeatureCollection","features":[{"type":"Feature","properties":{"name":"Astoria","borough":"Queens","slug":"astoria"},"geometry":{"type":"Polygon","coordinates":[[[-73.9119,40.769],[-73.9145,40.7659],[-73.9141,40.7657],[-73.9137,40.7655],[-73.915,40.7639],[-73.9158,40.7643],[-73.9179,40.7617],[-73.9198,40.7593],[-73.9217,40.7571],[-73.9229,40.7555],[-73.9242,40.754],[-73.925,40.7543],[-73.9258,40.7547],[-73.9266,40.7551],[-73.9274,40.7555],[-73.9282,40.7558],[-73.929,40.7562],[-73.9298,40.7566],[-73.9306,40.757],[-73.9314,40.7573],[-73.9322,40.7577],[-73.9309,40.7593],[-73.9297,40.7608],[-73.9305,40.7612],[-73.93,40.7617],[-73.9294,40.7624],[-73.93,40.7627],[-73.9304,40.7629],[-73.9313,40.7633],[-73.9311,40.7636],[-73.9309,40.7639],[-73.9304,40.7645],[-73.9296,40.7654],[-73.9292,40.766],[-73.9286,40.7667],[-73.9283,40.767],[-73.9282,40.7672],[-73.9278,40.7676],[-73.9272,40.7684],[-73.9265,40.7693],[-73.9278,40.7699],[-73.9275,40.7702],[-73.9273,40.7705],[-73.9271,40.7708],[-73.9268,40.7711],[-73.9264,40.7716],[-73.9259,40.7723],[-73.9251,40.7733],[-73.9249,40.7735],[-73.9245,40.774],[-73.924,40.7746],[-73.9228,40.774],[-73.9222,40.7735],[-73.9215,40.7731],[-73.9208,40.7726],[-73.9201,40.7721],[-73.9194,40.7716],[-73.9188,40.7711],[-73.9187,40.7711],[-73.9182,40.7707],[-73.9177,40.7704],[-73.9181,40.7701],[-73.9173,40.7699],[-73.9168,40.7698],[-73.9163,40.7697],[-73.9158,40.7696],[-73.9149,40.7695],[-73.9139,40.7693],[-73.9129,40.7692],[-73.9119,40.769]]]}},{"type":"Feature","properties":{"name":"Battery Park City","borough":"Manhattan","slug":"battery-park-city"},"geometry":{"type":"Polygon","coordinates":[[[-74.015,40.7175],[-74.017,40.7148],[-74.0178,40.71],[-74.0185,40.7055],[-74.0175,40.702],[-74.0148,40.7005],[-74.0118,40.7015],[-74.0105,40.7055],[-74.0098,40.7098],[-74.0102,40.7135],[-74.012,40.7165],[-74.015,40.7175]]]}},{"type":"Feature","properties":{"name":"Bayside","borough":"Queens","slug":"bayside"},"geometry":{"type":"Polygon","coordinates":[[[-73.7676,40.7783],[-73.7651,40.7738],[-73.7589,40.7683],[-73.7586,40.7674],[-73.7574,40.7672],[-73.7565,40.7663],[-73.7555,40.7664],[-73.7538,40.7653],[-73.7592,40.7643],[-73.7589,40.7633],[-73.7584,40.7635],[-73.7578,40.7626],[-73.7585,40.762],[-73.758,40.7604],[-73.7568,40.7597],[-73.7558,40.7577],[-73.7551,40.7585],[-73.7532,40.7582],[-73.7523,40.7595],[-73.7512,40.7591],[-73.7506,40.758],[-73.75,40.7584],[-73.7471,40.7542],[-73.7477,40.7538],[-73.7468,40.752],[-73.749,40.751],[-73.7576,40.7492],[-73.7614,40.7476],[-73.7686,40.7456],[-73.7716,40.7442],[-73.7756,40.7526],[-73.7784,40.7612],[-73.784,40.772],[-73.7846,40.7761],[-73.7758,40.7786],[-73.7755,40.777],[-73.7686,40.7791],[-73.7682,40.7781],[-73.7676,40.7783]]]}},{"type":"Feature","properties":{"name":"Boerum Hill","borough":"Brooklyn","slug":"boerum-hill"},"geometry":{"type":"Polygon","coordinates":[[[-73.9848,40.6858],[-73.9795,40.685],[-73.978,40.683],[-73.9782,40.68],[-73.981,40.6785],[-73.985,40.6785],[-73.9878,40.68],[-73.9882,40.683],[-73.9872,40.685],[-73.9848,40.6858]]]}},{"type":"Feature","properties":{"name":"Brooklyn Heights","borough":"Brooklyn","slug":"brooklyn-heights"},"geometry":{"type":"Polygon","coordinates":[[[-73.9924,40.6897],[-74.0017,40.6924],[-73.9995,40.6967],[-73.9989,40.6969],[-73.9972,40.7001],[-73.995,40.7031],[-73.9926,40.7021],[-73.9909,40.7007],[-73.9914,40.6983],[-73.9904,40.6938],[-73.991,40.6925],[-73.9889,40.6921],[-73.9905,40.6891],[-73.9924,40.6897]]]}},{"type":"Feature","properties":{"name":"Carnegie Hill","borough":"Manhattan","slug":"carnegie-hill"},"geometry":{"type":"Polygon","coordinates":[[[-73.9562,40.7868],[-73.9518,40.7855],[-73.9502,40.7838],[-73.9515,40.7815],[-73.9555,40.78],[-73.96,40.7812],[-73.9615,40.7838],[-73.9592,40.7862],[-73.9562,40.7868]]]}},{"type":"Feature","properties":{"name":"Carroll Gardens","borough":"Brooklyn","slug":"carroll-gardens"},"geometry":{"type":"Polygon","coordinates":[[[-73.9942,40.683],[-73.9895,40.6828],[-73.9862,40.6818],[-73.9855,40.6795],[-73.9865,40.676],[-73.9905,40.6748],[-73.9948,40.6755],[-73.9965,40.6785],[-73.996,40.6815],[-73.9942,40.683]]]}},{"type":"Feature","properties":{"name":"Chelsea","borough":"Manhattan","slug":"chelsea"},"geometry":{"type":"Polygon","coordinates":[[[-74.002,40.7525],[-73.995,40.751],[-73.9922,40.7478],[-73.9955,40.744],[-73.9982,40.7395],[-74.005,40.7365],[-74.0095,40.738],[-74.011,40.7415],[-74.0088,40.7465],[-74.0058,40.7505],[-74.002,40.7525]]]}},{"type":"Feature","properties":{"name":"Chinatown","borough":"Manhattan","slug":"chinatown"},"geometry":{"type":"Polygon","coordinates":[[[-73.996,40.7192],[-73.9925,40.7178],[-73.9898,40.7155],[-73.9895,40.713],[-73.993,40.7112],[-73.9968,40.7105],[-74.0002,40.7125],[-74.0005,40.7158],[-73.9988,40.7182],[-73.996,40.7192]]]}},{"type":"Feature","properties":{"name":"City Island","borough":"Bronx","slug":"city-island"},"geometry":{"type":"Polygon","coordinates":[[[-73.8178,40.8492],[-73.815,40.8472],[-73.8138,40.844],[-73.8148,40.8405],[-73.8168,40.8375],[-73.8205,40.8348],[-73.8248,40.8355],[-73.8268,40.839],[-73.8258,40.8432],[-73.8232,40.8465],[-73.8202,40.8488],[-73.8178,40.8492]]]}},{"type":"Feature","properties":{"name":"Civic Center","borough":"Manhattan","slug":"civic-center"},"geometry":{"type":"Polygon","coordinates":[[[-74.0042,40.7158],[-74.0012,40.7142],[-74.0002,40.712],[-74.0015,40.71],[-74.0048,40.7095],[-74.0072,40.711],[-74.0075,40.7135],[-74.0058,40.7155],[-74.0042,40.7158]]]}},{"type":"Feature","properties":{"name":"Cobble Hill","borough":"Brooklyn","slug":"cobble-hill"},"geometry":{"type":"Polygon","coordinates":[[[-73.9962,40.6862],[-73.991,40.6858],[-73.9878,40.6848],[-73.9875,40.6832],[-73.9908,40.6825],[-73.9952,40.6828],[-73.9978,40.684],[-73.998,40.6855],[-73.9962,40.6862]]]}},{"type":"Feature","properties":{"name":"DUMBO","borough":"Brooklyn","slug":"dumbo"},"geometry":{"type":"Polygon","coordinates":[[[-73.9928,40.7042],[-73.9882,40.7038],[-73.9858,40.7028],[-73.9842,40.7008],[-73.9848,40.698],[-73.987,40.696],[-73.9905,40.6965],[-73.9932,40.6985],[-73.9942,40.7015],[-73.9928,40.7042]]]}},{"type":"Feature","properties":{"name":"Dongan Hills","borough":"Staten Island","slug":"dongan-hills"},"geometry":{"type":"Polygon","coordinates":[[[-74.0722,40.6015],[-74.0668,40.5998],[-74.0655,40.5965],[-74.0678,40.5932],[-74.073,40.5912],[-74.079,40.5928],[-74.081,40.5962],[-74.0788,40.5998],[-74.0722,40.6015]]]}},{"type":"Feature","properties":{"name":"Downtown Brooklyn","borough":"Brooklyn","slug":"downtown-brooklyn"},"geometry":{"type":"Polygon","coordinates":[[[-73.9855,40.6962],[-73.9802,40.6948],[-73.9772,40.6912],[-73.9775,40.687],[-73.9812,40.6858],[-73.9858,40.6855],[-73.989,40.6878],[-73.9895,40.692],[-73.9882,40.695],[-73.9855,40.6962]]]}},{"type":"Feature","properties":{"name":"East Harlem","borough":"Manhattan","slug":"east-harlem"},"geometry":{"type":"Polygon","coordinates":[[[-73.9338,40.8194],[-73.9343,40.8096],[-73.9336,40.8076],[-73.9303,40.8038],[-73.929,40.8011],[-73.929,40.7968],[-73.9301,40.7947],[-73.9351,40.7917],[-73.9377,40.7928],[-73.9386,40.7916],[-73.9433,40.7935],[-73.9419,40.7954],[-73.9483,40.7981],[-73.9446,40.8032],[-73.9462,40.8039],[-73.9444,40.8064],[-73.9428,40.8057],[-73.9341,40.8177],[-73.9345,40.8197],[-73.9338,40.8194]]]}},{"type":"Feature","properties":{"name":"East Village","borough":"Manhattan","slug":"east-village"},"geometry":{"type":"Polygon","coordinates":[[[-73.9718,40.7258],[-73.9736,40.7186],[-73.9772,40.7193],[-73.9926,40.7241],[-73.9912,40.7277],[-73.9899,40.7344],[-73.9721,40.7269],[-73.9716,40.7266],[-73.9718,40.7258]]]}},{"type":"Feature","properties":{"name":"Financial District","borough":"Manhattan","slug":"financial-district"},"geometry":{"type":"Polygon","coordinates":[[[-74.0095,40.715],[-74.005,40.7128],[-73.9988,40.7098],[-73.9998,40.707],[-74.0008,40.704],[-74.0055,40.7012],[-74.0098,40.7008],[-74.0125,40.7038],[-74.0132,40.7078],[-74.0125,40.7118],[-74.0095,40.715]]]}},{"type":"Feature","properties":{"name":"Flatiron","borough":"Manhattan","slug":"flatiron"},"geometry":{"type":"Polygon","coordinates":[[[-73.9892,40.7462],[-73.986,40.7448],[-73.9855,40.7425],[-73.9868,40.74],[-73.9898,40.7388],[-73.993,40.7402],[-73.9938,40.7428],[-73.9918,40.7452],[-73.9892,40.7462]]]}},{"type":"Feature","properties":{"name":"Flushing","borough":"Queens","slug":"flushing"},"geometry":{"type":"Polygon","coordinates":[[[-73.8206,40.7589],[-73.8179,40.7571],[-73.8203,40.7555],[-73.8184,40.7538],[-73.8208,40.7522],[-73.8219,40.7532],[-73.8258,40.751],[-73.8258,40.7493],[-73.8277,40.7499],[-73.831,40.7489],[-73.8313,40.7481],[-73.833,40.7478],[-73.8323,40.7519],[-73.8356,40.7514],[-73.8379,40.7545],[-73.8386,40.757],[-73.8432,40.7553],[-73.846,40.7607],[-73.8467,40.7613],[-73.8437,40.7636],[-73.8431,40.7636],[-73.8427,40.7646],[-73.8394,40.7654],[-73.8372,40.7687],[-73.8316,40.7726],[-73.8315,40.7717],[-73.8306,40.7716],[-73.8305,40.7702],[-73.8296,40.7707],[-73.8266,40.7706],[-73.8266,40.7701],[-73.8247,40.7704],[-73.8235,40.7647],[-73.8206,40.7589]]]}},{"type":"Feature","properties":{"name":"Fordham","borough":"Bronx","slug":"fordham"},"geometry":{"type":"Polygon","coordinates":[[[-73.8918,40.8619],[-73.8914,40.8617],[-73.8914,40.8617],[-73.8926,40.8605],[-73.8932,40.8599],[-73.8938,40.859],[-73.8939,40.8588],[-73.8953,40.8567],[-73.8954,40.8565],[-73.8955,40.8563],[-73.8956,40.8562],[-73.8958,40.856],[-73.896,40.8556],[-73.8961,40.8555],[-73.8964,40.8549],[-73.8971,40.8552],[-73.8983,40.8541],[-73.8986,40.8539],[-73.8982,40.8551],[-73.8988,40.8554],[-73.8997,40.8557],[-73.9006,40.856],[-73.9008,40.856],[-73.9009,40.8559],[-73.9009,40.8559],[-73.9012,40.8555],[-73.9013,40.8553],[-73.9015,40.855],[-73.9019,40.8546],[-73.9021,40.8546],[-73.903,40.8548],[-73.904,40.855],[-73.9047,40.8554],[-73.9056,40.8558],[-73.9052,40.8562],[-73.9051,40.8564],[-73.9047,40.8571],[-73.9051,40.8572],[-73.9052,40.8573],[-73.9057,40.8574],[-73.9054,40.8578],[-73.9054,40.8579],[-73.9053,40.858],[-73.9049,40.8587],[-73.9045,40.8593],[-73.9041,40.86],[-73.9035,40.8609],[-73.9025,40.8606],[-73.9023,40.861],[-73.9021,40.8613],[-73.9019,40.8617],[-73.9016,40.8621],[-73.9014,40.8624],[-73.9011,40.8628],[-73.9003,40.8625],[-73.9,40.8624],[-73.8996,40.8622],[-73.8994,40.8621],[-73.8984,40.8623],[-73.898,40.8624],[-73.8974,40.8624],[-73.8973,40.8624],[-73.8971,40.8624],[-73.897,40.8624],[-73.8969,40.8624],[-73.8959,40.8623],[-73.8948,40.8621],[-73.8937,40.8619],[-73.8936,40.8619],[-73.8929,40.8618],[-73.8921,40.8619],[-73.892,40.8619],[-73.8918,40.8619]]]}},{"type":"Feature","properties":{"name":"Forest Hills","borough":"Queens","slug":"forest-hills"},"geometry":{"type":"Polygon","coordinates":[[[-73.831,40.7143],[-73.836,40.7117],[-73.8445,40.7087],[-73.8493,40.7084],[-73.8559,40.7064],[-73.8567,40.7077],[-73.8587,40.7226],[-73.8599,40.7243],[-73.862,40.726],[-73.8581,40.7244],[-73.8573,40.7257],[-73.8594,40.7265],[-73.858,40.7287],[-73.8576,40.7286],[-73.8585,40.7303],[-73.8563,40.731],[-73.8588,40.7358],[-73.8513,40.7376],[-73.8476,40.7391],[-73.8469,40.7387],[-73.8442,40.7326],[-73.8399,40.7282],[-73.8349,40.7193],[-73.8298,40.7156],[-73.8315,40.7146],[-73.831,40.7143]]]}},{"type":"Feature","properties":{"name":"Fort Greene","borough":"Brooklyn","slug":"fort-greene"},"geometry":{"type":"Polygon","coordinates":[[[-73.9628,40.698],[-73.9635,40.6968],[-73.9646,40.6961],[-73.9694,40.6961],[-73.9688,40.6931],[-73.9698,40.6931],[-73.9691,40.6895],[-73.9701,40.6895],[-73.9687,40.682],[-73.9775,40.6841],[-73.9808,40.6889],[-73.9835,40.6899],[-73.9814,40.6899],[-73.9821,40.6913],[-73.9818,40.693],[-73.9825,40.693],[-73.9825,40.6936],[-73.9792,40.6935],[-73.9801,40.6947],[-73.9805,40.6982],[-73.9658,40.6976],[-73.9628,40.698]]]}},{"type":"Feature","properties":{"name":"Gowanus","borough":"Brooklyn","slug":"gowanus"},"geometry":{"type":"Polygon","coordinates":[[[-73.987,40.6808],[-73.9818,40.681],[-73.9792,40.6792],[-73.9795,40.676],[-73.9808,40.6725],[-73.9845,40.671],[-73.9878,40.6718],[-73.9888,40.6748],[-73.9882,40.6785],[-73.987,40.6808]]]}},{"type":"Feature","properties":{"name":"Gramercy","borough":"Manhattan","slug":"gramercy"},"geometry":{"type":"Polygon","coordinates":[[[-73.9818,40.7412],[-73.9778,40.7398],[-73.9765,40.7368],[-73.978,40.7338],[-73.9822,40.732],[-73.9865,40.7335],[-73.9878,40.7365],[-73.9855,40.7398],[-73.9818,40.7412]]]}},{"type":"Feature","properties":{"name":"Gramercy Park","borough":"Manhattan","slug":"gramercy-park"},"geometry":{"type":"Polygon","coordinates":[[[-73.9855,40.7398],[-73.9832,40.7388],[-73.9822,40.7372],[-73.9832,40.7355],[-73.9855,40.7348],[-73.9878,40.736],[-73.9882,40.7378],[-73.987,40.7395],[-73.9855,40.7398]]]}},{"type":"Feature","properties":{"name":"Great Kills","borough":"Staten Island","slug":"great-kills"},"geometry":{"type":"Polygon","coordinates":[[[-74.147,40.5705],[-74.1413,40.5684],[-74.1353,40.5655],[-74.1317,40.5645],[-74.1348,40.5608],[-74.1356,40.559],[-74.1389,40.557],[-74.1332,40.5524],[-74.1387,40.5485],[-74.1359,40.5465],[-74.1372,40.5458],[-74.1361,40.545],[-74.1372,40.5458],[-74.1375,40.5456],[-74.1366,40.5448],[-74.1369,40.5447],[-74.1379,40.546],[-74.1389,40.5451],[-74.1376,40.5443],[-74.1388,40.5449],[-74.139,40.5447],[-74.138,40.5439],[-74.139,40.5447],[-74.1395,40.5443],[-74.1391,40.5445],[-74.1394,40.5442],[-74.139,40.5444],[-74.1392,40.5441],[-74.1386,40.5441],[-74.1388,40.5438],[-74.1383,40.5439],[-74.1383,40.5436],[-74.1396,40.5443],[-74.1398,40.5441],[-74.1389,40.5431],[-74.1404,40.544],[-74.1392,40.5432],[-74.1403,40.5436],[-74.1394,40.5428],[-74.1403,40.5434],[-74.1406,40.5431],[-74.1399,40.5424],[-74.1406,40.5431],[-74.1413,40.5431],[-74.1403,40.5422],[-74.1414,40.543],[-74.1403,40.542],[-74.1413,40.5426],[-74.1418,40.5422],[-74.1406,40.5417],[-74.141,40.5414],[-74.1417,40.5423],[-74.1423,40.5423],[-74.1425,40.5413],[-74.1417,40.5393],[-74.1423,40.5391],[-74.1418,40.5385],[-74.1423,40.5381],[-74.1419,40.5384],[-74.1422,40.5379],[-74.141,40.5373],[-74.1413,40.5371],[-74.1422,40.5379],[-74.1416,40.5371],[-74.1438,40.5371],[-74.1447,40.5358],[-74.1492,40.5342],[-74.1507,40.5325],[-74.1525,40.5321],[-74.1545,40.5301],[-74.1549,40.5302],[-74.156,40.5294],[-74.1564,40.5289],[-74.1562,40.5286],[-74.157,40.529],[-74.1597,40.5273],[-74.1687,40.5395],[-74.1691,40.541],[-74.1807,40.5467],[-74.1794,40.5483],[-74.1735,40.5597],[-74.1719,40.5615],[-74.1649,40.5601],[-74.1574,40.5625],[-74.1547,40.5655],[-74.1479,40.5709],[-74.147,40.5705]]]}},{"type":"Feature","properties":{"name":"Greenpoint","borough":"Brooklyn","slug":"greenpoint"},"geometry":{"type":"Polygon","coordinates":[[[-73.9321,40.7282],[-73.9374,40.7243],[-73.9472,40.7186],[-73.9484,40.7185],[-73.9491,40.7225],[-73.9506,40.7217],[-73.9516,40.7235],[-73.9548,40.7225],[-73.9581,40.7244],[-73.958,40.725],[-73.9584,40.7254],[-73.9601,40.7253],[-73.9603,40.7259],[-73.9616,40.7259],[-73.961,40.7287],[-73.9623,40.734],[-73.9598,40.7371],[-73.9576,40.7385],[-73.9548,40.7391],[-73.9529,40.7389],[-73.9465,40.7369],[-73.9472,40.7354],[-73.9471,40.7344],[-73.9466,40.7344],[-73.9467,40.7353],[-73.9456,40.7366],[-73.945,40.7364],[-73.9452,40.7355],[-73.9445,40.7363],[-73.9424,40.7354],[-73.9411,40.7342],[-73.9398,40.7312],[-73.9381,40.7297],[-73.9349,40.7285],[-73.9321,40.7282]]]}},{"type":"Feature","properties":{"name":"Greenwich Village","borough":"Manhattan","slug":"greenwich-village"},"geometry":{"type":"Polygon","coordinates":[[[-73.9899,40.7344],[-73.9899,40.7335],[-73.99,40.7328],[-73.9901,40.7324],[-73.9901,40.7324],[-73.9902,40.732],[-73.9904,40.7313],[-73.9905,40.7306],[-73.9907,40.7299],[-73.9908,40.7297],[-73.991,40.7292],[-73.9911,40.7286],[-73.9912,40.7281],[-73.9913,40.7278],[-73.9912,40.7277],[-73.9914,40.7276],[-73.9914,40.7275],[-73.9916,40.7271],[-73.9916,40.727],[-73.9916,40.7268],[-73.9918,40.7264],[-73.9921,40.7256],[-73.9922,40.7252],[-73.9923,40.7249],[-73.9926,40.7242],[-73.9926,40.7241],[-73.9927,40.7242],[-73.9935,40.7244],[-73.9942,40.7247],[-73.9949,40.725],[-73.9953,40.7251],[-73.9958,40.7252],[-73.9968,40.7254],[-73.9976,40.7258],[-73.9984,40.7262],[-73.9991,40.7265],[-73.9999,40.7269],[-74.0006,40.7273],[-74.0014,40.7277],[-74.0021,40.728],[-74.0024,40.7282],[-74.0026,40.7283],[-74.0027,40.7283],[-74.0028,40.7284],[-74.0028,40.7284],[-74.0025,40.729],[-74.0022,40.7297],[-74.0022,40.7298],[-74.0017,40.7306],[-74.0014,40.7311],[-74.001,40.7317],[-74.0005,40.7323],[-74.0001,40.7329],[-73.9998,40.7334],[-73.9996,40.7336],[-73.9992,40.7341],[-73.9987,40.7348],[-73.9985,40.735],[-73.9983,40.7354],[-73.9978,40.736],[-73.9973,40.7367],[-73.9968,40.7374],[-73.9936,40.736],[-73.9917,40.7352],[-73.9912,40.735],[-73.9908,40.7348],[-73.9899,40.7344]]]}},{"type":"Feature","properties":{"name":"Hamilton Heights","borough":"Manhattan","slug":"hamilton-heights"},"geometry":{"type":"Polygon","coordinates":[[[-73.9482,40.826],[-73.9435,40.8248],[-73.9418,40.8222],[-73.9438,40.8195],[-73.9485,40.8178],[-73.9538,40.8192],[-73.9555,40.8218],[-73.953,40.8248],[-73.9482,40.826]]]}},{"type":"Feature","properties":{"name":"Harlem","borough":"Manhattan","slug":"harlem"},"geometry":{"type":"Polygon","coordinates":[[[-73.9418,40.8071],[-73.9428,40.8057],[-73.9444,40.8064],[-73.9462,40.8039],[-73.9446,40.8032],[-73.9492,40.7969],[-73.9596,40.8012],[-73.9582,40.8031],[-73.9582,40.8055],[-73.955,40.8101],[-73.9536,40.8095],[-73.9521,40.8114],[-73.9418,40.8071]]]}},{"type":"Feature","properties":{"name":"Hell's Kitchen","borough":"Manhattan","slug":"hells-kitchen"},"geometry":{"type":"Polygon","coordinates":[[[-73.9961,40.7733],[-73.9942,40.7725],[-73.9934,40.7729],[-73.9938,40.7722],[-73.9824,40.7674],[-73.9916,40.7547],[-73.9973,40.7571],[-73.9955,40.7596],[-74.0018,40.7623],[-74.0015,40.7626],[-74.0038,40.7636],[-74.0014,40.7629],[-74.001,40.7634],[-74.0031,40.7643],[-74.0031,40.7647],[-73.9996,40.7636],[-73.9992,40.7642],[-74.0023,40.7656],[-74.002,40.7659],[-73.9989,40.7646],[-73.9983,40.7656],[-74.0016,40.767],[-74.0013,40.7673],[-73.9981,40.7659],[-73.9974,40.7668],[-74.0006,40.7682],[-74.0004,40.7685],[-73.9972,40.7671],[-73.9965,40.7681],[-73.9997,40.7695],[-73.9995,40.7698],[-73.9971,40.7687],[-73.9966,40.7694],[-73.999,40.7705],[-73.9988,40.7708],[-73.9963,40.7698],[-73.9954,40.771],[-73.9959,40.7715],[-73.9949,40.7715],[-73.9971,40.7725],[-73.9969,40.7728],[-73.9948,40.7719],[-73.9944,40.7724],[-73.9961,40.7733]]]}},{"type":"Feature","properties":{"name":"Inwood","borough":"Manhattan","slug":"inwood"},"geometry":{"type":"Polygon","coordinates":[[[-73.9223,40.8557],[-73.9229,40.8559],[-73.9229,40.8589],[-73.9273,40.8655],[-73.9287,40.8667],[-73.9262,40.8685],[-73.9216,40.8694],[-73.9193,40.871],[-73.9197,40.8721],[-73.9184,40.873],[-73.914,40.8712],[-73.9114,40.8732],[-73.9104,40.8714],[-73.9109,40.8694],[-73.9115,40.8695],[-73.9111,40.8689],[-73.9125,40.8665],[-73.9139,40.8647],[-73.9149,40.8646],[-73.9144,40.8642],[-73.9159,40.8643],[-73.9152,40.8639],[-73.9154,40.8631],[-73.9173,40.8617],[-73.9195,40.8588],[-73.9216,40.8601],[-73.9219,40.8592],[-73.9209,40.8582],[-73.9224,40.8566],[-73.9223,40.8557]]]}},{"type":"Feature","properties":{"name":"Jackson Heights","borough":"Queens","slug":"jackson-heights"},"geometry":{"type":"Polygon","coordinates":[[[-73.8737,40.7568],[-73.8694,40.7492],[-73.8918,40.7468],[-73.8964,40.7488],[-73.8997,40.7575],[-73.8988,40.7599],[-73.8965,40.7632],[-73.8951,40.7644],[-73.8943,40.7661],[-73.8911,40.7663],[-73.8909,40.7659],[-73.8877,40.7669],[-73.8864,40.7612],[-73.879,40.762],[-73.876,40.7614],[-73.8751,40.7566],[-73.8737,40.7568]]]}},{"type":"Feature","properties":{"name":"Kingsbridge","borough":"Bronx","slug":"kingsbridge"},"geometry":{"type":"Polygon","coordinates":[[[-73.9018,40.887],[-73.8965,40.8848],[-73.8948,40.8812],[-73.8975,40.8778],[-73.9028,40.8758],[-73.9085,40.8775],[-73.9108,40.8808],[-73.908,40.8848],[-73.9018,40.887]]]}},{"type":"Feature","properties":{"name":"Kips Bay","borough":"Manhattan","slug":"kips-bay"},"geometry":{"type":"Polygon","coordinates":[[[-73.976,40.7514],[-73.9744,40.7508],[-73.9735,40.7521],[-73.9713,40.7511],[-73.9689,40.7501],[-73.97,40.7489],[-73.9679,40.748],[-73.9719,40.7427],[-73.9727,40.7392],[-73.9725,40.7358],[-73.9745,40.7363],[-73.9741,40.736],[-73.9745,40.736],[-73.9745,40.7357],[-73.9731,40.7352],[-73.9728,40.7355],[-73.9735,40.7349],[-73.9783,40.7367],[-73.9781,40.7376],[-73.9827,40.7395],[-73.9809,40.742],[-73.9841,40.7433],[-73.9777,40.7521],[-73.976,40.7514]]]}},{"type":"Feature","properties":{"name":"Lenox Hill","borough":"Manhattan","slug":"lenox-hill"},"geometry":{"type":"Polygon","coordinates":[[[-73.9588,40.7718],[-73.9535,40.77],[-73.9518,40.7672],[-73.9535,40.7642],[-73.9578,40.7622],[-73.9632,40.764],[-73.9648,40.7675],[-73.9625,40.7708],[-73.9588,40.7718]]]}},{"type":"Feature","properties":{"name":"Little Italy","borough":"Manhattan","slug":"little-italy"},"geometry":{"type":"Polygon","coordinates":[[[-73.998,40.7205],[-73.9955,40.7195],[-73.9942,40.7178],[-73.995,40.716],[-73.9978,40.7152],[-74.0002,40.7165],[-74.0008,40.7188],[-73.998,40.7205]]]}},{"type":"Feature","properties":{"name":"Long Island City","borough":"Queens","slug":"long-island-city"},"geometry":{"type":"Polygon","coordinates":[[[-73.9369,40.7484],[-73.9366,40.7482],[-73.9403,40.7454],[-73.9434,40.7442],[-73.9442,40.7429],[-73.9373,40.7452],[-73.9387,40.7382],[-73.9415,40.7392],[-73.9391,40.7426],[-73.9387,40.7425],[-73.9386,40.7429],[-73.94,40.7432],[-73.9401,40.7428],[-73.9397,40.7427],[-73.9416,40.7399],[-73.9455,40.7382],[-73.9472,40.7379],[-73.9538,40.7398],[-73.9574,40.7396],[-73.9607,40.7381],[-73.9622,40.7383],[-73.9626,40.7388],[-73.9622,40.74],[-73.9612,40.7404],[-73.9619,40.7408],[-73.9612,40.7411],[-73.9611,40.7418],[-73.9616,40.742],[-73.9612,40.7426],[-73.9605,40.7435],[-73.9598,40.7435],[-73.9597,40.7439],[-73.9606,40.744],[-73.9596,40.7439],[-73.9594,40.7443],[-73.9601,40.7444],[-73.9588,40.7446],[-73.9594,40.7446],[-73.9588,40.7449],[-73.9597,40.7452],[-73.9585,40.745],[-73.9593,40.7455],[-73.9585,40.7458],[-73.9591,40.746],[-73.957,40.7489],[-73.9532,40.7477],[-73.9531,40.7481],[-73.9563,40.7491],[-73.9558,40.7496],[-73.9562,40.7497],[-73.9553,40.75],[-73.9551,40.7496],[-73.9545,40.7512],[-73.9508,40.7552],[-73.9381,40.7498],[-73.9369,40.7484]]]}},{"type":"Feature","properties":{"name":"Lower East Side","borough":"Manhattan","slug":"lower-east-side"},"geometry":{"type":"Polygon","coordinates":[[[-73.9751,40.7188],[-73.9736,40.7186],[-73.9768,40.7114],[-73.9781,40.7105],[-73.9845,40.7095],[-73.9853,40.7145],[-73.9902,40.7144],[-73.9892,40.7167],[-73.9948,40.7185],[-73.9926,40.7241],[-73.9751,40.7188]]]}},{"type":"Feature","properties":{"name":"Manhattanville","borough":"Manhattan","slug":"manhattanville"},"geometry":{"type":"Polygon","coordinates":[[[-73.9548,40.8238],[-73.9495,40.8222],[-73.948,40.8195],[-73.95,40.817],[-73.9545,40.8158],[-73.9592,40.8175],[-73.9602,40.8205],[-73.9578,40.8232],[-73.9548,40.8238]]]}},{"type":"Feature","properties":{"name":"Marble Hill","borough":"Manhattan","slug":"marble-hill"},"geometry":{"type":"Polygon","coordinates":[[[-73.9105,40.8782],[-73.9078,40.8772],[-73.9065,40.8755],[-73.9072,40.8738],[-73.9095,40.8728],[-73.9118,40.8738],[-73.9128,40.8758],[-73.912,40.8775],[-73.9105,40.8782]]]}},{"type":"Feature","properties":{"name":"Midtown","borough":"Manhattan","slug":"midtown"},"geometry":{"type":"Polygon","coordinates":[[[-73.979,40.7638],[-73.9732,40.762],[-73.9728,40.7582],[-73.9755,40.754],[-73.9798,40.751],[-73.9858,40.7518],[-73.9895,40.7552],[-73.9888,40.7598],[-73.9848,40.7628],[-73.979,40.7638]]]}},{"type":"Feature","properties":{"name":"Midtown East","borough":"Manhattan","slug":"midtown-east"},"geometry":{"type":"Polygon","coordinates":[[[-73.97,40.7588],[-73.9648,40.7575],[-73.9625,40.7548],[-73.9642,40.7518],[-73.9682,40.7502],[-73.9732,40.7515],[-73.9748,40.7548],[-73.9732,40.7578],[-73.97,40.7588]]]}},{"type":"Feature","properties":{"name":"Midtown West","borough":"Manhattan","slug":"midtown-west"},"geometry":{"type":"Polygon","coordinates":[[[-73.973,40.7643],[-73.9698,40.7629],[-73.9758,40.7547],[-73.9765,40.755],[-73.977,40.7543],[-73.9783,40.7524],[-73.9777,40.7521],[-73.9809,40.7478],[-73.9873,40.7505],[-73.9878,40.7498],[-73.9935,40.7522],[-73.9821,40.7677],[-73.9815,40.7679],[-73.973,40.7643]]]}},{"type":"Feature","properties":{"name":"Morningside Heights","borough":"Manhattan","slug":"morningside-heights"},"geometry":{"type":"Polygon","coordinates":[[[-73.9521,40.8114],[-73.9536,40.8095],[-73.955,40.8101],[-73.9582,40.8055],[-73.9582,40.8031],[-73.9596,40.8012],[-73.9711,40.8058],[-73.9641,40.8158],[-73.962,40.8181],[-73.9595,40.817],[-73.9563,40.8134],[-73.9557,40.8141],[-73.9541,40.8123],[-73.9521,40.8114]]]}},{"type":"Feature","properties":{"name":"Mott Haven","borough":"Bronx","slug":"mott-haven"},"geometry":{"type":"Polygon","coordinates":[[[-73.9248,40.8157],[-73.924,40.8154],[-73.9231,40.8167],[-73.9212,40.8162],[-73.9216,40.8156],[-73.9205,40.8146],[-73.9176,40.8161],[-73.9109,40.8136],[-73.9045,40.8123],[-73.9034,40.8115],[-73.9023,40.8046],[-73.9045,40.8032],[-73.9086,40.7993],[-73.9083,40.799],[-73.9117,40.7966],[-73.9137,40.7968],[-73.919,40.799],[-73.9202,40.7996],[-73.9213,40.8013],[-73.9229,40.8024],[-73.9276,40.8027],[-73.9273,40.8035],[-73.9276,40.804],[-73.9287,40.8041],[-73.9325,40.8088],[-73.9329,40.8104],[-73.9324,40.8142],[-73.9303,40.8132],[-73.9289,40.8149],[-73.9273,40.8186],[-73.9252,40.818],[-73.9266,40.8161],[-73.9248,40.8157]]]}},{"type":"Feature","properties":{"name":"Murray Hill","borough":"Manhattan","slug":"murray-hill"},"geometry":{"type":"Polygon","coordinates":[[[-73.976,40.7514],[-73.9744,40.7508],[-73.9735,40.7521],[-73.9713,40.7511],[-73.9689,40.7501],[-73.97,40.7489],[-73.9679,40.748],[-73.9719,40.7427],[-73.9727,40.7392],[-73.9725,40.7358],[-73.9745,40.7363],[-73.9741,40.736],[-73.9745,40.736],[-73.9745,40.7357],[-73.9731,40.7352],[-73.9728,40.7355],[-73.9735,40.7349],[-73.9783,40.7367],[-73.9781,40.7376],[-73.9827,40.7395],[-73.9809,40.742],[-73.9841,40.7433],[-73.9777,40.7521],[-73.976,40.7514]]]}},{"type":"Feature","properties":{"name":"New Brighton","borough":"Staten Island","slug":"new-brighton"},"geometry":{"type":"Polygon","coordinates":[[[-74.0726,40.6379],[-74.0768,40.6378],[-74.0788,40.6383],[-74.0837,40.6357],[-74.0859,40.6367],[-74.0869,40.6359],[-74.0887,40.6368],[-74.0897,40.6357],[-74.0924,40.6356],[-74.0934,40.6366],[-74.0941,40.6393],[-74.0977,40.639],[-74.0979,40.6404],[-74.0999,40.6402],[-74.1004,40.6431],[-74.0996,40.6432],[-74.0997,40.6448],[-74.1009,40.6448],[-74.093,40.646],[-74.0857,40.6489],[-74.0822,40.6483],[-74.0798,40.6484],[-74.0765,40.647],[-74.0745,40.6451],[-74.0736,40.645],[-74.0739,40.6454],[-74.0733,40.6458],[-74.0737,40.6453],[-74.0726,40.6448],[-74.0727,40.6444],[-74.0717,40.645],[-74.0723,40.6443],[-74.0711,40.6432],[-74.0721,40.6425],[-74.0703,40.6425],[-74.0732,40.6422],[-74.0731,40.6419],[-74.0702,40.642],[-74.0731,40.6416],[-74.0729,40.6409],[-74.07,40.6411],[-74.0729,40.6408],[-74.0731,40.6386],[-74.0724,40.6382],[-74.0726,40.6379]]]}},{"type":"Feature","properties":{"name":"NoHo","borough":"Manhattan","slug":"noho"},"geometry":{"type":"Polygon","coordinates":[[[-73.9948,40.7298],[-73.992,40.7285],[-73.9908,40.7262],[-73.9918,40.724],[-73.9942,40.723],[-73.9968,40.7245],[-73.9978,40.727],[-73.9965,40.7292],[-73.9948,40.7298]]]}},{"type":"Feature","properties":{"name":"NoMad","borough":"Manhattan","slug":"nomad"},"geometry":{"type":"Polygon","coordinates":[[[-73.9902,40.7508],[-73.9872,40.7492],[-73.9858,40.7468],[-73.987,40.7448],[-73.9898,40.744],[-73.993,40.7455],[-73.994,40.748],[-73.9925,40.7502],[-73.9902,40.7508]]]}},{"type":"Feature","properties":{"name":"Nolita","borough":"Manhattan","slug":"nolita"},"geometry":{"type":"Polygon","coordinates":[[[-73.9962,40.7262],[-73.9938,40.7252],[-73.9922,40.7232],[-73.9928,40.721],[-73.9952,40.7198],[-73.9978,40.7205],[-73.9988,40.7225],[-73.9978,40.7248],[-73.9962,40.7262]]]}},{"type":"Feature","properties":{"name":"Park Slope","borough":"Brooklyn","slug":"park-slope"},"geometry":{"type":"Polygon","coordinates":[[[-73.9738,40.683],[-73.9747,40.6803],[-73.9762,40.6781],[-73.9695,40.6759],[-73.9697,40.6754],[-73.9688,40.6744],[-73.9688,40.6733],[-73.9689,40.6729],[-73.9704,40.6726],[-73.9797,40.6612],[-73.9917,40.6667],[-73.9839,40.6761],[-73.9781,40.6849],[-73.9775,40.6841],[-73.9738,40.683]]]}},{"type":"Feature","properties":{"name":"Pelham Bay","borough":"Bronx","slug":"pelham-bay"},"geometry":{"type":"Polygon","coordinates":[[[-73.8258,40.8578],[-73.8195,40.8558],[-73.8162,40.8518],[-73.8172,40.8478],[-73.8208,40.8438],[-73.8262,40.8418],[-73.8318,40.8435],[-73.8345,40.8478],[-73.8332,40.8525],[-73.8298,40.8562],[-73.8258,40.8578]]]}},{"type":"Feature","properties":{"name":"Peter Cooper Village","borough":"Manhattan","slug":"peter-cooper-village"},"geometry":{"type":"Polygon","coordinates":[[[-73.9752,40.7368],[-73.9728,40.7355],[-73.9718,40.7335],[-73.9728,40.7318],[-73.9752,40.731],[-73.9775,40.7322],[-73.9782,40.7342],[-73.977,40.736],[-73.9752,40.7368]]]}},{"type":"Feature","properties":{"name":"Prospect Heights","borough":"Brooklyn","slug":"prospect-heights"},"geometry":{"type":"Polygon","coordinates":[[[-73.9607,40.6731],[-73.9613,40.6714],[-73.9689,40.6729],[-73.9687,40.6741],[-73.9697,40.6754],[-73.9695,40.6759],[-73.9762,40.6781],[-73.9747,40.6803],[-73.9738,40.683],[-73.9613,40.6805],[-73.9632,40.6755],[-73.9601,40.6749],[-73.9607,40.6731]]]}},{"type":"Feature","properties":{"name":"Red Hook","borough":"Brooklyn","slug":"red-hook"},"geometry":{"type":"Polygon","coordinates":[[[-74,40.679],[-73.9972,40.6775],[-73.996,40.6748],[-73.998,40.672],[-74.0035,40.6698],[-74.009,40.668],[-74.0142,40.6695],[-74.0168,40.6725],[-74.015,40.6758],[-74.0095,40.6785],[-74.0038,40.6798],[-74,40.679]]]}},{"type":"Feature","properties":{"name":"Riverdale","borough":"Bronx","slug":"riverdale"},"geometry":{"type":"Polygon","coordinates":[[[-73.9068,40.9048],[-73.8992,40.9012],[-73.8972,40.8958],[-73.8998,40.8908],[-73.9055,40.8878],[-73.9128,40.8895],[-73.9162,40.8938],[-73.9155,40.8992],[-73.9118,40.9038],[-73.9068,40.9048]]]}},{"type":"Feature","properties":{"name":"Roosevelt Island","borough":"Manhattan","slug":"roosevelt-island"},"geometry":{"type":"Polygon","coordinates":[[[-73.9528,40.7718],[-73.9512,40.7698],[-73.9498,40.7668],[-73.9492,40.7635],[-73.9492,40.76],[-73.9498,40.757],[-73.951,40.7548],[-73.9525,40.7545],[-73.9538,40.7558],[-73.9545,40.7592],[-73.9548,40.7632],[-73.9545,40.767],[-73.9538,40.7702],[-73.9528,40.7718]]]}},{"type":"Feature","properties":{"name":"SoHo","borough":"Manhattan","slug":"soho"},"geometry":{"type":"Polygon","coordinates":[[[-74.0048,40.7268],[-74.0002,40.7258],[-73.997,40.7238],[-73.9975,40.7212],[-73.9992,40.7188],[-74.003,40.719],[-74.0062,40.7205],[-74.0072,40.7238],[-74.0048,40.7268]]]}},{"type":"Feature","properties":{"name":"South Beach","borough":"Staten Island","slug":"south-beach"},"geometry":{"type":"Polygon","coordinates":[[[-74.0658,40.5972],[-74.0612,40.595],[-74.06,40.5918],[-74.0622,40.5885],[-74.0668,40.5865],[-74.0718,40.5882],[-74.0738,40.5915],[-74.0718,40.5952],[-74.0658,40.5972]]]}},{"type":"Feature","properties":{"name":"South Slope","borough":"Brooklyn","slug":"south-slope"},"geometry":{"type":"Polygon","coordinates":[[[-73.9838,40.668],[-73.9792,40.6668],[-73.9775,40.664],[-73.9782,40.6608],[-73.981,40.6588],[-73.9852,40.6598],[-73.9868,40.6628],[-73.9862,40.6662],[-73.9838,40.668]]]}},{"type":"Feature","properties":{"name":"Spuyten Duyvil","borough":"Bronx","slug":"spuyten-duyvil"},"geometry":{"type":"Polygon","coordinates":[[[-73.9158,40.8852],[-73.9122,40.8838],[-73.9108,40.8818],[-73.9115,40.8795],[-73.9142,40.8782],[-73.9175,40.8795],[-73.9188,40.8818],[-73.9178,40.8842],[-73.9158,40.8852]]]}},{"type":"Feature","properties":{"name":"St. George","borough":"Staten Island","slug":"st-george"},"geometry":{"type":"Polygon","coordinates":[[[-74.0726,40.6379],[-74.0768,40.6378],[-74.0788,40.6383],[-74.0837,40.6357],[-74.0859,40.6367],[-74.0869,40.6359],[-74.0887,40.6368],[-74.0897,40.6357],[-74.0924,40.6356],[-74.0934,40.6366],[-74.0941,40.6393],[-74.0977,40.639],[-74.0979,40.6404],[-74.0999,40.6402],[-74.1004,40.6431],[-74.0996,40.6432],[-74.0997,40.6448],[-74.1009,40.6448],[-74.093,40.646],[-74.0857,40.6489],[-74.0822,40.6483],[-74.0798,40.6484],[-74.0765,40.647],[-74.0745,40.6451],[-74.0736,40.645],[-74.0739,40.6454],[-74.0733,40.6458],[-74.0737,40.6453],[-74.0726,40.6448],[-74.0727,40.6444],[-74.0717,40.645],[-74.0723,40.6443],[-74.0711,40.6432],[-74.0721,40.6425],[-74.0703,40.6425],[-74.0732,40.6422],[-74.0731,40.6419],[-74.0702,40.642],[-74.0731,40.6416],[-74.0729,40.6409],[-74.07,40.6411],[-74.0729,40.6408],[-74.0731,40.6386],[-74.0724,40.6382],[-74.0726,40.6379]]]}},{"type":"Feature","properties":{"name":"Stuyvesant Town","borough":"Manhattan","slug":"stuyvesant-town"},"geometry":{"type":"Polygon","coordinates":[[[-73.9768,40.7325],[-73.9742,40.7312],[-73.9732,40.729],[-73.9742,40.727],[-73.9765,40.726],[-73.979,40.7275],[-73.9798,40.7298],[-73.9785,40.7318],[-73.9768,40.7325]]]}},{"type":"Feature","properties":{"name":"Sugar Hill","borough":"Manhattan","slug":"sugar-hill"},"geometry":{"type":"Polygon","coordinates":[[[-73.9478,40.8328],[-73.9432,40.8312],[-73.9418,40.8285],[-73.9438,40.8258],[-73.9478,40.8248],[-73.9525,40.8262],[-73.954,40.829],[-73.9515,40.8318],[-73.9478,40.8328]]]}},{"type":"Feature","properties":{"name":"Sunnyside","borough":"Queens","slug":"sunnyside"},"geometry":{"type":"Polygon","coordinates":[[[-73.9097,40.7498],[-73.9101,40.7485],[-73.9116,40.7487],[-73.9119,40.7481],[-73.9124,40.7459],[-73.9112,40.7458],[-73.912,40.7422],[-73.9138,40.7424],[-73.9144,40.7405],[-73.9157,40.7408],[-73.9172,40.7369],[-73.9165,40.7368],[-73.9169,40.7354],[-73.9175,40.7354],[-73.9184,40.7332],[-73.9188,40.7332],[-73.919,40.7321],[-73.9173,40.7314],[-73.9184,40.7259],[-73.9222,40.7265],[-73.9265,40.7281],[-73.9279,40.7283],[-73.9285,40.7278],[-73.9304,40.7286],[-73.9365,40.7297],[-73.9391,40.7314],[-73.9401,40.7338],[-73.9416,40.7358],[-73.9459,40.7375],[-73.9415,40.7392],[-73.9387,40.7382],[-73.9373,40.7452],[-73.9377,40.7452],[-73.9268,40.7476],[-73.9208,40.7469],[-73.9203,40.7492],[-73.9154,40.7501],[-73.9097,40.7498]]]}},{"type":"Feature","properties":{"name":"Sutton Place","borough":"Manhattan","slug":"sutton-place"},"geometry":{"type":"Polygon","coordinates":[[[-73.963,40.7612],[-73.96,40.76],[-73.9592,40.7578],[-73.9605,40.756],[-73.9632,40.755],[-73.966,40.7565],[-73.9668,40.7588],[-73.9652,40.7608],[-73.963,40.7612]]]}},{"type":"Feature","properties":{"name":"Todt Hill","borough":"Staten Island","slug":"todt-hill"},"geometry":{"type":"Polygon","coordinates":[[[-74.0977,40.6105],[-74.0943,40.6103],[-74.0906,40.609],[-74.0927,40.6064],[-74.0924,40.6041],[-74.0929,40.6014],[-74.0918,40.5987],[-74.0938,40.5967],[-74.1001,40.5937],[-74.1009,40.5925],[-74.1009,40.5902],[-74.1015,40.5893],[-74.1092,40.5827],[-74.1131,40.5808],[-74.1156,40.5785],[-74.117,40.5782],[-74.1191,40.5762],[-74.1215,40.5752],[-74.1271,40.5764],[-74.1277,40.5752],[-74.1328,40.5735],[-74.1442,40.572],[-74.1439,40.5706],[-74.1444,40.5697],[-74.1479,40.5709],[-74.1547,40.5655],[-74.1573,40.5626],[-74.1649,40.5601],[-74.1698,40.5611],[-74.1698,40.5708],[-74.1523,40.5806],[-74.1473,40.585],[-74.1463,40.5861],[-74.1454,40.5915],[-74.14,40.5986],[-74.1405,40.6031],[-74.1471,40.6056],[-74.1475,40.6061],[-74.1472,40.6083],[-74.1435,40.6077],[-74.1288,40.6085],[-74.1156,40.6111],[-74.109,40.6101],[-74.0977,40.6105]]]}},{"type":"Feature","properties":{"name":"Tribeca","borough":"Manhattan","slug":"tribeca"},"geometry":{"type":"Polygon","coordinates":[[[-74.008,40.7252],[-74.0042,40.7235],[-74.001,40.7208],[-73.9998,40.7175],[-74.0035,40.7158],[-74.0068,40.7145],[-74.0108,40.7148],[-74.0142,40.7172],[-74.0148,40.7208],[-74.0118,40.724],[-74.008,40.7252]]]}},{"type":"Feature","properties":{"name":"Turtle Bay","borough":"Manhattan","slug":"turtle-bay"},"geometry":{"type":"Polygon","coordinates":[[[-73.9718,40.7548],[-73.9682,40.7538],[-73.9662,40.7515],[-73.9672,40.7492],[-73.97,40.748],[-73.9732,40.7492],[-73.9742,40.7518],[-73.9735,40.754],[-73.9718,40.7548]]]}},{"type":"Feature","properties":{"name":"Two Bridges","borough":"Manhattan","slug":"two-bridges"},"geometry":{"type":"Polygon","coordinates":[[[-73.9888,40.713],[-73.9848,40.7118],[-73.9832,40.7095],[-73.9842,40.7072],[-73.9875,40.7055],[-73.992,40.7065],[-73.9942,40.7088],[-73.9925,40.7115],[-73.9888,40.713]]]}},{"type":"Feature","properties":{"name":"Union Square","borough":"Manhattan","slug":"union-square"},"geometry":{"type":"Polygon","coordinates":[[[-73.9918,40.74],[-73.9888,40.7388],[-73.9872,40.7365],[-73.9882,40.7345],[-73.9912,40.7338],[-73.9942,40.735],[-73.995,40.7375],[-73.9938,40.7395],[-73.9918,40.74]]]}},{"type":"Feature","properties":{"name":"Upper East Side","borough":"Manhattan","slug":"upper-east-side"},"geometry":{"type":"Polygon","coordinates":[[[-73.9598,40.784],[-73.9542,40.7815],[-73.9512,40.7778],[-73.9528,40.7728],[-73.9568,40.7678],[-73.962,40.7652],[-73.9678,40.766],[-73.9718,40.7698],[-73.9728,40.7745],[-73.97,40.7798],[-73.9652,40.783],[-73.9598,40.784]]]}},{"type":"Feature","properties":{"name":"Upper West Side","borough":"Manhattan","slug":"upper-west-side"},"geometry":{"type":"Polygon","coordinates":[[[-73.9642,40.7924],[-73.975,40.7775],[-73.9851,40.7818],[-73.9857,40.7803],[-73.9881,40.7814],[-73.9855,40.7854],[-73.9862,40.7861],[-73.9871,40.7852],[-73.9861,40.7862],[-73.9854,40.7854],[-73.9851,40.7859],[-73.9858,40.7862],[-73.985,40.786],[-73.9847,40.7865],[-73.9859,40.7865],[-73.9846,40.7866],[-73.9764,40.7983],[-73.9694,40.7954],[-73.9699,40.7947],[-73.9642,40.7924]]]}},{"type":"Feature","properties":{"name":"Washington Heights","borough":"Manhattan","slug":"washington-heights"},"geometry":{"type":"Polygon","coordinates":[[[-73.9314,40.8474],[-73.9356,40.8417],[-73.9351,40.8393],[-73.9364,40.8379],[-73.938,40.8343],[-73.9402,40.8319],[-73.9403,40.8305],[-73.9502,40.8343],[-73.9486,40.8396],[-73.9461,40.8439],[-73.947,40.8505],[-73.9432,40.8498],[-73.9439,40.8482],[-73.9421,40.8483],[-73.938,40.8476],[-73.9364,40.8495],[-73.9314,40.8474]]]}},{"type":"Feature","properties":{"name":"West Harlem","borough":"Manhattan","slug":"west-harlem"},"geometry":{"type":"Polygon","coordinates":[[[-73.9532,40.8168],[-73.9478,40.8148],[-73.9462,40.8118],[-73.9488,40.809],[-73.9538,40.8078],[-73.9592,40.8098],[-73.9605,40.8132],[-73.9575,40.816],[-73.9532,40.8168]]]}},{"type":"Feature","properties":{"name":"West Village","borough":"Manhattan","slug":"west-village"},"geometry":{"type":"Polygon","coordinates":[[[-74.0092,40.7425],[-73.9968,40.7374],[-74.0014,40.7311],[-74.0028,40.7284],[-74.0105,40.7291],[-74.0106,40.7282],[-74.0144,40.7285],[-74.0141,40.7307],[-74.0112,40.7305],[-74.011,40.7323],[-74.0109,40.733],[-74.014,40.7333],[-74.0107,40.7335],[-74.0108,40.734],[-74.012,40.7341],[-74.0108,40.7343],[-74.0105,40.7381],[-74.0111,40.7384],[-74.0105,40.7384],[-74.0104,40.7392],[-74.0116,40.7393],[-74.0115,40.7406],[-74.0127,40.7407],[-74.0096,40.7406],[-74.0096,40.7414],[-74.0114,40.7418],[-74.0108,40.7426],[-74.0092,40.7425]]]}},{"type":"Feature","properties":{"name":"Williamsburg","borough":"Brooklyn","slug":"williamsburg"},"geometry":{"type":"Polygon","coordinates":[[[-73.9581,40.7244],[-73.9548,40.7225],[-73.9516,40.7235],[-73.9506,40.7217],[-73.9491,40.7225],[-73.9484,40.7185],[-73.9472,40.7186],[-73.9535,40.7141],[-73.9494,40.7141],[-73.9487,40.7097],[-73.9509,40.7095],[-73.9502,40.7055],[-73.9579,40.7084],[-73.9585,40.7073],[-73.9633,40.7077],[-73.9684,40.7068],[-73.9693,40.7071],[-73.9698,40.708],[-73.9696,40.7103],[-73.9701,40.7105],[-73.9694,40.711],[-73.9699,40.7113],[-73.9692,40.7112],[-73.9673,40.717],[-73.9651,40.7192],[-73.9653,40.7201],[-73.9645,40.72],[-73.9628,40.7224],[-73.9617,40.7249],[-73.9621,40.7251],[-73.9581,40.7244]]]}},{"type":"Feature","properties":{"name":"Windsor Terrace","borough":"Brooklyn","slug":"windsor-terrace"},"geometry":{"type":"Polygon","coordinates":[[[-73.9822,40.6602],[-73.9778,40.6588],[-73.9762,40.656],[-73.977,40.6532],[-73.98,40.6515],[-73.9842,40.6528],[-73.9858,40.6558],[-73.9848,40.659],[-73.9822,40.6602]]]}},{"type":"Feature","properties":{"name":"Yorkville","borough":"Manhattan","slug":"yorkville"},"geometry":{"type":"Polygon","coordinates":[[[-73.9436,40.7802],[-73.9434,40.7798],[-73.9424,40.78],[-73.9421,40.7795],[-73.943,40.7789],[-73.9421,40.7773],[-73.9424,40.7773],[-73.9421,40.776],[-73.9475,40.7701],[-73.9573,40.7743],[-73.9493,40.7852],[-73.9438,40.7828],[-73.9436,40.7802]]]}}]}